[{"OBJECT_NAME":"KUIPER-00099","OBJECT_ID":"2025-171G","EPOCH":"2026-03-09T10:44:10.140576","MEAN_MOTION":14.79933571,"ECCENTRICITY":6.938e-5,"INCLINATION":51.9019,"RA_OF_ASC_NODE":154.1533,"ARG_OF_PERICENTER":27.9295,"MEAN_ANOMALY":332.1705,"EPHEMERIS_TYPE":0,"CLASSIFICATION_TYPE":"U","NORAD_CAT_ID":65138,"ELEMENT_SET_NO":999,"REV_AT_EPOCH":3292,"BSTAR":0.00071909036,"MEAN_MOTION_DOT":5.265e-5,"MEAN_MOTION_DDOT":0},{"OBJECT_NAME":"CZ-4C DEB","OBJECT_ID":"2018-031J","EPOCH":"2026-03-08T23:16:23.138400","MEAN_MOTION":14.80472658,"ECCENTRICITY":0.00037528,"INCLINATION":97.7313,"RA_OF_ASC_NODE":126.5608,"ARG_OF_PERICENTER":246.8859,"MEAN_ANOMALY":113.1959,"EPHEMERIS_TYPE":0,"CLASSIFICATION_TYPE":"U","NORAD_CAT_ID":43270,"ELEMENT_SET_NO":999,"REV_AT_EPOCH":43811,"BSTAR":0.00014078752,"MEAN_MOTION_DOT":1.027e-5,"MEAN_MOTION_DDOT":0}]
